name,city,latitude,longitude,country_code,Starbucks,Nightlife,transportation,preschool,veganRest,petService
Wetpaint,Seattle,47.603122,-122.333253,USA,2,11,11,4,1,3
Wetpaint,New York,40.7237306,-73.9964312,USA,3,17,9,9,10,7
StumbleUpon,San Francisco,37.775196,-122.419204,USA,2,2,6,10,4,3
Meetup,New York,40.72604,-73.995722,USA,4,12,8,12,8,13
Bebo,San Francisco,37.782103,-122.401116,USA,2,10,1,5,1,3
Seesmic,San Francisco,37.775196,-122.419204,USA,2,2,6,10,4,3
Flixster,San Francisco,37.766909,-122.406676,USA,4,4,3,6,1,4
eBuddy,San Francisco,37.787683,-122.410943,USA,6,7,5,3,2,1
AOL,New York,40.7311317,-73.9919311,USA,4,8,5,14,13,15
Yola,San Francisco,37.7911148,-122.3954751,USA,7,5,14,6,1,4
BitTorrent,San Francisco,37.790998,-122.394668,USA,6,3,11,5,3,4
Cloudant,Boston,42.35892,-71.05781,USA,5,6,18,9,6,2
Veotag,New York,40.752957,-73.98546,USA,9,25,11,10,8,8
Atom Entertainment,San Francisco,37.790964,-122.401128,USA,10,2,14,6,4,1
Heavy,New York,40.753385,-73.98962,USA,14,22,26,12,5,8
OpenTable,San Francisco,37.785647,-122.405265,USA,8,6,9,4,2,2
Tacoda,New York,40.757929,-73.985506,USA,9,29,11,6,7,3
Wonga,London,51.5192042,-0.1626103,GBR,3,11,14,1,2,1
Tutor,New York,40.707921,-74.004792,USA,6,1,3,12,5,5
FlowPlay,Seattle,47.6015315,-122.335943,USA,2,10,6,3,1,2
Smartsheet,Bellevue,47.617842,-122.20052,USA,5,1,1,4,2,2
mig33,Singapore,37.580304,-122.343679,SGP,1,1,5,7,1,2
Mimeo,New York,40.745216,-73.982807,USA,8,12,10,14,15,27
Zannel,San Francisco,37.775196,-122.419204,USA,2,2,6,10,4,3
Tumblr,New York,40.743808,-73.983626,USA,8,11,6,16,16,28
Disqus,San Francisco,37.786906,-122.397672,USA,4,4,7,4,2,4
Doppelganger,San Francisco,37.762162,-122.413912,USA,1,4,1,10,1,4
Gilt Groupe,New York,40.74727,-73.9800645,USA,10,6,6,13,5,19
PlayFirst,San Francisco,37.790346,-122.40185,USA,10,4,11,6,4,1
Oversee,Los Angeles,34.051368,-118.256305,USA,8,2,3,3,3,3
Zynga,San Francisco,37.765158,-122.404234,USA,3,5,2,9,1,3
Lookery,San Francisco,37.788266,-122.403865,USA,10,6,9,6,4,1
stickK,New York,40.744837,-73.983843,USA,10,11,8,15,17,28
TheLadders,New York,40.725883,-74.006196,USA,2,4,8,6,6,15
Inform Technologies,New York,40.744639,-73.983963,USA,9,11,8,15,17,28
Blog Talk Radio,New York,40.757929,-73.985506,USA,9,29,11,6,7,3
XO Group,New York,40.720824,-74.00007,USA,3,17,12,12,11,9
Phreesia,New York,40.739794,-73.985878,USA,5,6,6,16,12,25
Boonty,New York,40.717248,-74.002662,USA,5,11,10,14,9,7
99designs,San Francisco,37.7955307,-122.4005983,USA,7,13,12,5,4,2
Tripology,New York,40.746883,-73.983969,USA,8,15,13,16,12,26
Next New Networks,New York,40.743808,-73.983626,USA,8,11,6,16,16,28
Monitor110,New York,40.732748,-73.992607,USA,4,7,5,20,11,19
Netbooks,San Francisco,37.79471,-122.40195,USA,8,14,8,5,6,2
Digital Railroad,New York,40.735327,-73.988469,USA,4,5,6,14,9,21
Business Insider,New York,40.73906,-73.990911,USA,5,12,11,16,10,29
Zemanta,New York,40.7387945,-73.9939213,USA,4,11,11,17,9,29
Cellfish,New York,40.761855,-73.983754,USA,10,19,9,4,7,5
GitHub,San Francisco,37.775196,-122.419204,USA,2,2,6,10,4,3
Globant,London,51.5205095,-0.0952197,GBR,2,5,6,5,2,1
Globant,San Francisco,37.7819286,-122.4041764,USA,4,12,3,6,1,2
Daptiv,Seattle,47.604279,-122.337437,USA,4,9,5,3,1,2
TeachStreet,Seattle,47.6171788,-122.3370801,USA,2,9,1,2,3,9
Yoono,San Francisco,37.787204,-122.397884,USA,4,4,7,5,2,4
Knewton,New York,40.7310476,-74.0078134,USA,2,3,4,7,7,15
appssavvy,New York,40.724604,-73.996876,USA,3,19,8,10,9,11
HealthiNation,New York,40.739341,-73.988357,USA,4,11,5,16,10,24
Bestofmedia Group,Culver City,34.0221299,-118.395743,USA,1,2,1,7,8,7
InsideView,San Francisco,37.764169,-122.402021,USA,2,4,2,9,1,2
WideOrbit,San Francisco,37.7895289,-122.3885899,USA,3,1,2,3,1,4
BountyJobs,New York,40.754211,-73.97917,USA,12,11,15,11,14,8
Photobucket,Denver,47.601803,-122.332085,USA,1,11,18,5,1,3
CashEdge,New York,40.736796,-73.988339,USA,5,8,7,16,10,23
Posterous,San Francisco,37.775196,-122.419204,USA,2,2,6,10,4,3
Medialets,New York,40.756054,-73.986951,USA,9,29,8,6,7,4
Medialets,San Francisco,37.775196,-122.419204,USA,2,2,6,10,4,3
Bitly,New York,40.74034,-74.00721,USA,3,19,2,6,4,12
Hands-On Mobile,San Francisco,37.775196,-122.419204,USA,2,2,6,10,4,3
Minted,San Francisco,37.797435,-122.403175,USA,3,18,3,5,4,1
Huddler,San Francisco,37.7893215,-122.4013624,USA,9,5,11,5,4,1
Admeld,New York,40.755253,-73.992152,USA,8,14,13,5,3,7
Zorap,San Francisco,37.775196,-122.419204,USA,2,2,6,10,4,3
Hunch,New York,40.741179,-73.993182,USA,5,15,11,15,8,27
TradeCard,New York,40.707729,-74.007801,USA,11,2,13,14,7,6
GoodGuide,San Francisco,37.7983181,-122.4000032,USA,3,12,8,4,2,1
TradeCard,New York,40.707729,-74.007801,USA,11,2,13,14,7,6
GoodGuide,San Francisco,37.7983181,-122.4000032,USA,3,12,8,4,2,1
Yipit,New York,40.744618,-73.987764,USA,9,16,12,14,14,28
iPerceptions,New York,40.7619759,-73.9725773,USA,7,9,9,10,17,11
SecondMarket,New York,40.705439,-74.012822,USA,8,4,13,7,5,5
IMedExchange,Seattle,47.6136485,-122.3371174,USA,7,8,6,4,4,7
LiveVox,San Francisco,37.794643,-122.401144,USA,7,11,8,5,5,2
ID Analytics,San Diego,32.7154,-117.1565,USA,2,30,9,4,6,8
Double Fusion,San Francisco,37.7887135,-122.3927145,USA,4,4,2,4,2,4
Heyzap,San Francisco,37.7905538,-122.4041485,USA,9,2,13,7,3,1
Granicus,San Francisco,37.787445,-122.397847,USA,4,4,7,5,2,4
Nexway,Madrid,40.4142986,-3.7033074,ESP,4,24,5,4,12,2
Nexway,Singapore,1.307505,103.8295,SGP,6,24,1,4,3,1
TheMarkets,New York,40.762674,-73.9821315,USA,11,13,11,5,9,4
Major League Gaming,New York,40.752672,-73.97593,USA,15,4,10,12,11,14
Crispy Gamer,New York,40.750597,-73.985273,USA,11,29,13,13,9,19
Optify,Seattle,47.603364,-122.333359,USA,2,11,10,4,1,2
Recyclebank,New York,40.7310476,-74.0078134,USA,2,3,4,7,7,15
Netbiscuits,London,51.513248,-0.1547377,GBR,3,9,6,1,3,1
Firm58,New York,40.766734,-73.988265,USA,5,10,1,9,2,8
ACT Biotech,San Francisco,37.7871306,-122.4041075,USA,11,6,12,5,3,2
Optimum Energy,New York,40.7518919,-73.9875922,USA,14,28,19,13,7,12
EnerNOC,Boston,42.355246,-71.056915,USA,7,2,16,11,6,1
OpTier,New York,40.754937,-73.985647,USA,9,29,9,10,10,5
